SL-14 R/B               
1 16792U 86046B   26069.95236250  .00000554  00000+0  61059-4 0  9992
2 16792  82.4783  78.9882 0022052 220.9946 138.9613 14.85591628126597
SL-14 R/B               
1 16882U 86055B   26069.90141613  .00000488  00000+0  53386-4 0  9995
2 16882  82.5200 125.5353 0018077 332.4033 200.5015 14.85643850119546
AJISAI (EGS)            
1 16908U 86061A   26069.91993537 -.00000103  00000+0 -40764-4 0  9994
2 16908  50.0081  89.5645 0011271 290.1806 138.4281 12.44515656468155
SL-14 R/B               
1 17567U 87024B   26069.51398965  .00000545  00000+0  59325-4 0  9997
2 17567  82.5247  91.9888 0016704 256.9495 102.9857 14.86132862 88253
COSMOS 1833             
1 17589U 87027A   26069.92212119 -.00000189  00000+0 -75082-4 0  9999
2 17589  70.9221 323.4290 0024213 212.8081 147.1538 14.13054492 10496
SL-16 R/B               
1 17590U 87027B   26069.96280847  .00000139  00000+0  92841-4 0  9993
2 17590  71.0012 273.8126 0003378 140.0020 220.1353 14.17166007 15524
SL-14 R/B               
1 17912U 87038B   26069.91357895  .00000496  00000+0  54638-4 0  9994
2 17912  82.4999 295.6549 0019776 156.5116 203.7008 14.85370470 79418
COSMOS 1844             
1 17973U 87041A   26069.95598527 -.00000168  00000+0 -62113-4 0  9993
2 17973  70.9000  31.5036 0030085  15.8747 344.3311 14.14551811  3767
SL-14 R/B               
1 18153U 87055B   26069.82293155  .00000652  00000+0  72230-4 0  9991
2 18153  82.5030 347.9636 0021067  14.1244 346.0556 14.85631015 70109
COSMOS 1867             
1 18187U 87060A   26069.90836376 -.00000020  00000+0  30246-4 0  9992
2 18187  65.0111 303.2929 0014496 278.7183  81.2259 14.31503241 20114
SL-14 R/B               
1 18749U 88001B   26069.88567760  .00000711  00000+0  79358-4 0  9990
2 18749  82.5155 194.2353 0016911 231.4879 128.4822 14.85529507 42207
COSMOS 1933             
1 18958U 88020A   26069.91073333  .00005683  00000+0  27811-3 0  9994
2 18958  82.5101 249.7032 0004003 176.6218 183.5044 15.17996112 50412
