CCSDS_OMM_VERS = 2.0
CREATION_DATE  = 
ORIGINATOR     = 

OBJECT_NAME    = SL-14 R/B
OBJECT_ID      = 1986-046B
CENTER_NAME    = EARTH
REF_FRAME      = TEME
TIME_SYSTEM    = UTC
MEAN_ELEMENT_THEORY = SGP/SGP4

EPOCH          = 2026-03-10T22:51:24.120000
MEAN_MOTION    = 14.85591628
ECCENTRICITY   = .00220524
INCLINATION    = 82.4783
RA_OF_ASC_NODE = 78.9882
ARG_OF_PERICENTER = 220.9946
MEAN_ANOMALY   = 138.9613

EPHEMERIS_TYPE = 0
CLASSIFICATION_TYPE = U
NORAD_CAT_ID   = 16792
ELEMENT_SET_NO = 999
REV_AT_EPOCH   = 12659
BSTAR          = .61059034E-4
MEAN_MOTION_DOT = .554E-5
MEAN_MOTION_DDOT = 0

CCSDS_OMM_VERS = 2.0
CREATION_DATE  = 
ORIGINATOR     = 

OBJECT_NAME    = SL-14 R/B
OBJECT_ID      = 1986-055B
CENTER_NAME    = EARTH
REF_FRAME      = TEME
TIME_SYSTEM    = UTC
MEAN_ELEMENT_THEORY = SGP/SGP4

EPOCH          = 2026-03-10T21:38:02.353632
MEAN_MOTION    = 14.85643850
ECCENTRICITY   = .0018077
INCLINATION    = 82.5200
RA_OF_ASC_NODE = 125.5353
ARG_OF_PERICENTER = 332.4033
MEAN_ANOMALY   = 200.5015

EPHEMERIS_TYPE = 0
CLASSIFICATION_TYPE = U
NORAD_CAT_ID   = 16882
ELEMENT_SET_NO = 999
REV_AT_EPOCH   = 11954
BSTAR          = .53385733E-4
MEAN_MOTION_DOT = .488E-5
MEAN_MOTION_DDOT = 0

CCSDS_OMM_VERS = 2.0
CREATION_DATE  = 
ORIGINATOR     = 

OBJECT_NAME    = AJISAI (EGS)
OBJECT_ID      = 1986-061A
CENTER_NAME    = EARTH
REF_FRAME      = TEME
TIME_SYSTEM    = UTC
MEAN_ELEMENT_THEORY = SGP/SGP4

EPOCH          = 2026-03-10T22:04:42.415968
MEAN_MOTION    = 12.44515656
ECCENTRICITY   = .00112716
INCLINATION    = 50.0081
RA_OF_ASC_NODE = 89.5645
ARG_OF_PERICENTER = 290.1806
MEAN_ANOMALY   = 138.4281

EPHEMERIS_TYPE = 0
CLASSIFICATION_TYPE = U
NORAD_CAT_ID   = 16908
ELEMENT_SET_NO = 999
REV_AT_EPOCH   = 46815
BSTAR          = -.40763608E-4
MEAN_MOTION_DOT = -.103E-5
MEAN_MOTION_DDOT = 0

CCSDS_OMM_VERS = 2.0
CREATION_DATE  = 
ORIGINATOR     = 

OBJECT_NAME    = SL-14 R/B
OBJECT_ID      = 1987-024B
CENTER_NAME    = EARTH
REF_FRAME      = TEME
TIME_SYSTEM    = UTC
MEAN_ELEMENT_THEORY = SGP/SGP4

EPOCH          = 2026-03-10T12:20:08.705760
MEAN_MOTION    = 14.86132862
ECCENTRICITY   = .00167043
INCLINATION    = 82.5247
RA_OF_ASC_NODE = 91.9888
ARG_OF_PERICENTER = 256.9495
MEAN_ANOMALY   = 102.9857

EPHEMERIS_TYPE = 0
CLASSIFICATION_TYPE = U
NORAD_CAT_ID   = 17567
ELEMENT_SET_NO = 999
REV_AT_EPOCH   = 8825
BSTAR          = .59324742E-4
MEAN_MOTION_DOT = .545E-5
MEAN_MOTION_DDOT = 0

CCSDS_OMM_VERS = 2.0
CREATION_DATE  = 
ORIGINATOR     = 

OBJECT_NAME    = COSMOS 1833
OBJECT_ID      = 1987-027A
CENTER_NAME    = EARTH
REF_FRAME      = TEME
TIME_SYSTEM    = UTC
MEAN_ELEMENT_THEORY = SGP/SGP4

EPOCH          = 2026-03-10T22:07:51.270816
MEAN_MOTION    = 14.13054492
ECCENTRICITY   = .00242131
INCLINATION    = 70.9221
RA_OF_ASC_NODE = 323.4290
ARG_OF_PERICENTER = 212.8081
MEAN_ANOMALY   = 147.1538

EPHEMERIS_TYPE = 0
CLASSIFICATION_TYPE = U
NORAD_CAT_ID   = 17589
ELEMENT_SET_NO = 999
REV_AT_EPOCH   = 1049
BSTAR          = -.75081963E-4
MEAN_MOTION_DOT = -.189E-5
MEAN_MOTION_DDOT = 0

CCSDS_OMM_VERS = 2.0
CREATION_DATE  = 
ORIGINATOR     = 

OBJECT_NAME    = SL-16 R/B
OBJECT_ID      = 1987-027B
CENTER_NAME    = EARTH
REF_FRAME      = TEME
TIME_SYSTEM    = UTC
MEAN_ELEMENT_THEORY = SGP/SGP4

EPOCH          = 2026-03-10T23:06:26.651808
MEAN_MOTION    = 14.17166007
ECCENTRICITY   = .00033789
INCLINATION    = 71.0012
RA_OF_ASC_NODE = 273.8126
ARG_OF_PERICENTER = 140.0020
MEAN_ANOMALY   = 220.1353

EPHEMERIS_TYPE = 0
CLASSIFICATION_TYPE = U
NORAD_CAT_ID   = 17590
ELEMENT_SET_NO = 999
REV_AT_EPOCH   = 1552
BSTAR          = .92841364E-4
MEAN_MOTION_DOT = .139E-5
MEAN_MOTION_DDOT = 0

CCSDS_OMM_VERS = 2.0
CREATION_DATE  = 
ORIGINATOR     = 

OBJECT_NAME    = SL-14 R/B
OBJECT_ID      = 1987-038B
CENTER_NAME    = EARTH
REF_FRAME      = TEME
TIME_SYSTEM    = UTC
MEAN_ELEMENT_THEORY = SGP/SGP4

EPOCH          = 2026-03-10T21:55:33.221280
MEAN_MOTION    = 14.85370470
ECCENTRICITY   = .00197768
INCLINATION    = 82.4999
RA_OF_ASC_NODE = 295.6549
ARG_OF_PERICENTER = 156.5116
MEAN_ANOMALY   = 203.7008

EPHEMERIS_TYPE = 0
CLASSIFICATION_TYPE = U
NORAD_CAT_ID   = 17912
ELEMENT_SET_NO = 999
REV_AT_EPOCH   = 7941
BSTAR          = .54638465E-4
MEAN_MOTION_DOT = .496E-5
MEAN_MOTION_DDOT = 0

CCSDS_OMM_VERS = 2.0
CREATION_DATE  = 
ORIGINATOR     = 

OBJECT_NAME    = COSMOS 1844
OBJECT_ID      = 1987-041A
CENTER_NAME    = EARTH
REF_FRAME      = TEME
TIME_SYSTEM    = UTC
MEAN_ELEMENT_THEORY = SGP/SGP4

EPOCH          = 2026-03-10T22:56:37.127328
MEAN_MOTION    = 14.14551811
ECCENTRICITY   = .00300856
INCLINATION    = 70.9000
RA_OF_ASC_NODE = 31.5036
ARG_OF_PERICENTER = 15.8747
MEAN_ANOMALY   = 344.3311

EPHEMERIS_TYPE = 0
CLASSIFICATION_TYPE = U
NORAD_CAT_ID   = 17973
ELEMENT_SET_NO = 999
REV_AT_EPOCH   = 376
BSTAR          = -.62113227E-4
MEAN_MOTION_DOT = -.168E-5
MEAN_MOTION_DDOT = 0

CCSDS_OMM_VERS = 2.0
CREATION_DATE  = 
ORIGINATOR     = 

OBJECT_NAME    = SL-14 R/B
OBJECT_ID      = 1987-055B
CENTER_NAME    = EARTH
REF_FRAME      = TEME
TIME_SYSTEM    = UTC
MEAN_ELEMENT_THEORY = SGP/SGP4

EPOCH          = 2026-03-10T19:45:01.285920
MEAN_MOTION    = 14.85631015
ECCENTRICITY   = .00210674
INCLINATION    = 82.5030
RA_OF_ASC_NODE = 347.9636
ARG_OF_PERICENTER = 14.1244
MEAN_ANOMALY   = 346.0556

EPHEMERIS_TYPE = 0
CLASSIFICATION_TYPE = U
NORAD_CAT_ID   = 18153
ELEMENT_SET_NO = 999
REV_AT_EPOCH   = 7010
BSTAR          = .72229514E-4
MEAN_MOTION_DOT = .652E-5
MEAN_MOTION_DDOT = 0

CCSDS_OMM_VERS = 2.0
CREATION_DATE  = 
ORIGINATOR     = 

OBJECT_NAME    = COSMOS 1867
OBJECT_ID      = 1987-060A
CENTER_NAME    = EARTH
REF_FRAME      = TEME
TIME_SYSTEM    = UTC
MEAN_ELEMENT_THEORY = SGP/SGP4

EPOCH          = 2026-03-10T21:48:02.628864
MEAN_MOTION    = 14.31503241
ECCENTRICITY   = .00144969
INCLINATION    = 65.0111
RA_OF_ASC_NODE = 303.2929
ARG_OF_PERICENTER = 278.7183
MEAN_ANOMALY   = 81.2259

EPHEMERIS_TYPE = 0
CLASSIFICATION_TYPE = U
NORAD_CAT_ID   = 18187
ELEMENT_SET_NO = 999
REV_AT_EPOCH   = 2011
BSTAR          = .30246402E-4
MEAN_MOTION_DOT = -.2E-6
MEAN_MOTION_DDOT = 0

CCSDS_OMM_VERS = 2.0
CREATION_DATE  = 
ORIGINATOR     = 

OBJECT_NAME    = SL-14 R/B
OBJECT_ID      = 1988-001B
CENTER_NAME    = EARTH
REF_FRAME      = TEME
TIME_SYSTEM    = UTC
MEAN_ELEMENT_THEORY = SGP/SGP4

EPOCH          = 2026-03-10T21:15:22.544640
MEAN_MOTION    = 14.85529507
ECCENTRICITY   = .00169111
INCLINATION    = 82.5155
RA_OF_ASC_NODE = 194.2353
ARG_OF_PERICENTER = 231.4879
MEAN_ANOMALY   = 128.4822

EPHEMERIS_TYPE = 0
CLASSIFICATION_TYPE = U
NORAD_CAT_ID   = 18749
ELEMENT_SET_NO = 999
REV_AT_EPOCH   = 4220
BSTAR          = .79358019E-4
MEAN_MOTION_DOT = .711E-5
MEAN_MOTION_DDOT = 0

CCSDS_OMM_VERS = 2.0
CREATION_DATE  = 
ORIGINATOR     = 

OBJECT_NAME    = COSMOS 1933
OBJECT_ID      = 1988-020A
CENTER_NAME    = EARTH
REF_FRAME      = TEME
TIME_SYSTEM    = UTC
MEAN_ELEMENT_THEORY = SGP/SGP4

EPOCH          = 2026-03-10T21:51:27.359712
MEAN_MOTION    = 15.17996112
ECCENTRICITY   = .00040033
INCLINATION    = 82.5101
RA_OF_ASC_NODE = 249.7032
ARG_OF_PERICENTER = 176.6218
MEAN_ANOMALY   = 183.5044

EPHEMERIS_TYPE = 0
CLASSIFICATION_TYPE = U
NORAD_CAT_ID   = 18958
ELEMENT_SET_NO = 999
REV_AT_EPOCH   = 5041
BSTAR          = .27810972E-3
MEAN_MOTION_DOT = .5683E-4
MEAN_MOTION_DDOT = 0

